{
  "norad_id": 58944,
  "name": "STARLINK-31336",
  "history": [
    {
      "epoch": "2026-04-16T18:17:27.117888Z",
      "apogee_km": 475.99310579657595,
      "perigee_km": 474.40861408335786,
      "latitude_deg": 3.102620025775014e-05,
      "longitude_deg": 13.773354078124894,
      "height_km": 475.80463349868046,
      "semi_major_axis_km": 6853.337859939967,
      "eccentricity": 0.0001156,
      "inclination_deg": 53.1597,
      "raan_deg": 133.0415,
      "arg_perigee_deg": 68.1747,
      "mean_anomaly_deg": 291.9377,
      "mean_motion_rev_day": 15.30204759
    },
    {
      "epoch": "2026-04-17T13:06:05.733216Z",
      "apogee_km": 476.0659033843458,
      "perigee_km": 474.41300605099696,
      "latitude_deg": 4.8928896502127854e-05,
      "longitude_deg": 87.19984221177421,
      "height_km": 475.85337015699065,
      "semi_major_axis_km": 6853.376454717671,
      "eccentricity": 0.00012059,
      "inclination_deg": 53.16,
      "raan_deg": 129.4014,
      "arg_perigee_deg": 69.876,
      "mean_anomaly_deg": 290.2371,
      "mean_motion_rev_day": 15.30191833
    },
    {
      "epoch": "2026-04-18T07:54:43.723872Z",
      "apogee_km": 475.9465762394366,
      "perigee_km": 474.50654748781744,
      "latitude_deg": 7.297007616676993e-05,
      "longitude_deg": 160.6283442868095,
      "height_km": 475.94167227453147,
      "semi_major_axis_km": 6853.363561863626,
      "eccentricity": 0.00010506,
      "inclination_deg": 53.1599,
      "raan_deg": 125.7607,
      "arg_perigee_deg": 75.2523,
      "mean_anomaly_deg": 284.8595,
      "mean_motion_rev_day": 15.30196151
    },
    {
      "epoch": "2026-04-19T07:25:31.592352Z",
      "apogee_km": 476.009283278805,
      "perigee_km": 474.42889936414576,
      "latitude_deg": 3.0282784327392615e-06,
      "longitude_deg": 162.41238299596625,
      "height_km": 475.928523326579,
      "semi_major_axis_km": 6853.356091321475,
      "eccentricity": 0.0001153,
      "inclination_deg": 53.1596,
      "raan_deg": 121.2099,
      "arg_perigee_deg": 76.1761,
      "mean_anomaly_deg": 283.9368,
      "mean_motion_rev_day": 15.30198653
    },
    {
      "epoch": "2026-04-20T10:04:26.841504Z",
      "apogee_km": 475.75097693622956,
      "perigee_km": 474.7542199530317,
      "latitude_deg": 4.352133531109157e-06,
      "longitude_deg": 116.42875497322561,
      "height_km": 476.0406278858442,
      "semi_major_axis_km": 6853.389598444631,
      "eccentricity": 7.272e-05,
      "inclination_deg": 53.1615,
      "raan_deg": 116.0509,
      "arg_perigee_deg": 77.1368,
      "mean_anomaly_deg": 282.9714,
      "mean_motion_rev_day": 15.30187431
    },
    {
      "epoch": "2026-04-21T17:25:28.649856Z",
      "apogee_km": 475.6821702078578,
      "perigee_km": 474.3800682652036,
      "latitude_deg": 2.3485294743681315e-05,
      "longitude_deg": -1.1827881363312034,
      "height_km": 476.12398605293896,
      "semi_major_axis_km": 6853.16811923653,
      "eccentricity": 9.5e-05,
      "inclination_deg": 53.1605,
      "raan_deg": 109.9844,
      "arg_perigee_deg": 107.3577,
      "mean_anomaly_deg": 252.7528,
      "mean_motion_rev_day": 15.3026161
    },
    {
      "epoch": "2026-04-22T16:56:18.745728Z",
      "apogee_km": 475.9832451972352,
      "perigee_km": 474.4343890425653,
      "latitude_deg": -1.726634225676466e-05,
      "longitude_deg": 0.5915640738288825,
      "height_km": 476.1126584305446,
      "semi_major_axis_km": 6853.3458171199,
      "eccentricity": 0.000113,
      "inclination_deg": 53.1605,
      "raan_deg": 105.4332,
      "arg_perigee_deg": 90.4083,
      "mean_anomaly_deg": 269.7047,
      "mean_motion_rev_day": 15.30202094
    },
    {
      "epoch": "2026-04-23T05:28:43.880160Z",
      "apogee_km": 476.0227921781261,
      "perigee_km": 474.3674383390053,
      "latitude_deg": -3.121002013985107e-05,
      "longitude_deg": 169.54361332360244,
      "height_km": 476.180316306898,
      "semi_major_axis_km": 6853.332115258565,
      "eccentricity": 0.00012077,
      "inclination_deg": 53.1611,
      "raan_deg": 103.005,
      "arg_perigee_deg": 96.0273,
      "mean_anomaly_deg": 264.0865,
      "mean_motion_rev_day": 15.30206683
    }
  ]
}